ASTROCAST-0402          
1 55109U 23001DE  26068.80661100  .00010930  00000+0  41835-3 0  9996
2 55109  97.5556 160.6821 0004209 216.6984 143.3966 15.26734153129364
STARLINK-31508          
1 59503U 24071V   26068.18395426 -.00003974  00000+0 -13500-3 0  9992
2 59503  43.0000 342.9980 0001588 245.9634 114.1051 15.27573533108127
